H1 CPF  1  SGF 2022  2 28  2  5591 larets    
H2  0304206 5557    27944 2022  2 27  0  0  0 2022  3  4 23 57  0   180 1 1  0 0 0
H9
10 0 59642  53640.00000  0  -3231678.746   1625471.129   6066180.871
10 0 59642  53820.00000  0  -1995623.142   1458219.238   6615358.637
10 0 59642  54000.00000  0   -692794.170   1204813.859   6923134.924
10 0 59642  54180.00000  0    627449.527    873339.250   6978336.660
10 0 59642  54360.00000  0   1915397.951    475991.345   6778915.073
10 0 59642  54540.00000  0   3122839.602     28635.572   6332022.402
10 0 59642  54720.00000  0   4204855.755   -449811.872   5653785.919
10 0 59642  54900.00000  0   5121503.392   -938161.746   4768774.001
10 0 59642  55080.00000  0   5839326.816  -1413862.502   3709160.415
10 0 59642  55260.00000  0   6332639.770  -1854009.851   2513598.224
10 0 59642  55440.00000  0   6584515.661  -2236412.024   1225827.718
10 0 59642  55620.00000  0   6587430.922  -2540658.847   -106935.253
10 0 59642  55800.00000  0   6343521.318  -2749139.904  -1435771.217
10 0 59642  55980.00000  0   5864428.804  -2847954.112  -2711910.641
10 0 59642  56160.00000  0   5170744.145  -2827661.020  -3888578.291
10 0 59642  56340.00000  0   4291083.881  -2683834.597  -4922742.776
10 0 59642  56520.00000  0   3260852.656  -2417395.779  -5776699.548
10 0 59642  56700.00000  0   2120759.091  -2034707.717  -6419420.327
10 0 59642  56880.00000  0    915169.819  -1547437.282  -6827635.343
10 0 59642  57060.00000  0   -309637.011   -972188.494  -6986624.612
10 0 59642  57240.00000  0  -1507245.513   -329928.172  -6890700.311
10 0 59642  57420.00000  0  -2632844.366    354776.641  -6543385.116
10 0 59642  57600.00000  0  -3644884.925   1054687.976  -5957284.455
10 0 59642  57780.00000  0  -4506606.866   1740963.299  -5153661.743
10 0 59642  57960.00000  0  -5187391.556   2384328.016  -4161717.164
10 0 59642  58140.00000  0  -5663887.949   2956314.999  -3017572.410
10 0 59642  58320.00000  0  -5920861.105   3430513.717  -1762987.109
10 0 59642  58500.00000  0  -5951724.248   3783776.220   -443842.247
10 0 59642  58680.00000  0  -5758717.549   3997317.096    891559.190
10 0 59642  58860.00000  0  -5352717.835   4057646.713   2194304.536
10 0 59642  59040.00000  0  -4752681.489   3957284.131   3416709.968
10 0 59642  59220.00000  0  -3984759.042   3695216.760   4514099.193
10 0 59642  59400.00000  0  -3081130.233   3277083.075   5446448.097
10 0 59642  59580.00000  0  -2078623.316   2715076.410   6179829.762
10 0 59642  59760.00000  0  -1017186.596   2027577.272   6687612.472
10 0 59642  59940.00000  0     61715.354   1238533.819   6951375.275
10 0 59642  60120.00000  0   1116711.800    376620.220   6961531.282
10 0 59642  60300.00000  0   2108094.921   -525798.844   6717653.705
10 0 59642  60480.00000  0   2999299.002  -1433868.214   6228500.764
10 0 59642  60660.00000  0   3758247.942  -2311573.495   5511735.900
10 0 59642  60840.00000  0   4358528.338  -3123161.827   4593339.965
10 0 59642  61020.00000  0   4780343.320  -3834603.153   3506723.096
10 0 59642  61200.00000  0   5011209.890  -4415036.389   2291549.142
10 0 59642  61380.00000  0   5046361.792  -4838130.042    992298.568
10 0 59642  61560.00000  0   4888828.781  -5083288.655   -343378.020
10 0 59642  61740.00000  0   4549185.825  -5136640.726  -1666449.653
10 0 59642  61920.00000  0   4044981.533  -4991750.011  -2928362.231
10 0 59642  62100.00000  0   3399872.488  -4650010.096  -4082873.870
10 0 59642  62280.00000  0   2642513.491  -4120704.409  -5087783.192
10 0 59642  62460.00000  0   1805265.292  -3420731.788  -5906475.598
10 0 59642  62640.00000  0    922792.438  -2574022.578  -6509225.630
10 0 59642  62820.00000  0     30618.014  -1610681.705  -6874229.703
10 0 59642  63000.00000  0   -836305.505   -565888.854  -6988341.359
10 0 59642  63180.00000  0  -1644951.137    521394.713  -6847499.011
10 0 59642  63360.00000  0  -2365459.957   1609868.011  -6456848.968
10 0 59642  63540.00000  0  -2972231.602   2657440.116  -5830566.193
10 0 59642  63720.00000  0  -3444833.941   3622844.219  -4991377.977
10 0 59642  63900.00000  0  -3768706.152   4467267.711  -3969789.341
10 0 59642  64080.00000  0  -3935622.867   5155932.998  -2803014.989
10 0 59642  64260.00000  0  -3943894.365   5659558.216  -1533650.876
10 0 59642  64440.00000  0  -3798298.746   5955635.578   -208124.986
10 0 59642  64620.00000  0  -3509738.579   6029456.616   1125025.142
10 0 59642  64800.00000  0  -3094637.824   5874823.804   2416973.332
10 0 59642  64980.00000  0  -2574100.450   5494406.413   3620444.125
10 0 59642  65160.00000  0  -1972882.049   4899718.861   4691472.769
10 0 59642  65340.00000  0  -1318236.379   4110738.740   5591015.220
10 0 59642  65520.00000  0   -638692.677   3155187.173   6286351.973
10 0 59642  65700.00000  0     37174.895   2067508.984   6752236.309
10 0 59642  65880.00000  0    681932.196    887605.041   6971761.956
10 0 59642  66060.00000  0   1270382.480   -340635.626   6936936.922
10 0 59642  66240.00000  0   1780538.049  -1570953.660   6648957.287
10 0 59642  66420.00000  0   2194436.770  -2756443.461   6118179.226
10 0 59642  66600.00000  0   2498779.412  -3851332.514   5363784.211
10 0 59642  66780.00000  0   2685365.366  -4812757.149   4413135.580
10 0 59642  66960.00000  0   2751311.898  -5602470.299   3300837.507
10 0 59642  67140.00000  0   2699046.529  -6188414.416   2067510.234
10 0 59642  67320.00000  0   2536064.138  -6546081.301    758313.555
10 0 59642  67500.00000  0   2274461.014  -6659586.397   -578725.187
10 0 59642  67680.00000  0   1930265.663  -6522404.397  -1894519.539
10 0 59642  67860.00000  0   1522592.566  -6137708.816  -3140788.323
10 0 59642  68040.00000  0   1072667.029  -5518296.193  -4271880.840
10 0 59642  68220.00000  0    602782.365  -4686103.057  -5246475.302
10 0 59642  68400.00000  0    135242.496  -3671358.529  -6029083.889
10 0 59642  68580.00000  0   -308659.154  -2511417.955  -6591312.521
10 0 59642  68760.00000  0   -709577.298  -1249336.712  -6912839.318
10 0 59642  68940.00000  0  -1050931.280     67751.856  -6982095.089
10 0 59642  69120.00000  0  -1319571.577   1390395.744  -6796638.834
10 0 59642  69300.00000  0  -1506276.785   2668661.557  -6363227.111
10 0 59642  69480.00000  0  -1606066.630   3853998.613  -5697584.315
10 0 59642  69660.00000  0  -1618323.300   4901079.335  -4823873.108
10 0 59642  69840.00000  0  -1546716.736   5769553.216  -3773866.060
10 0 59642  70020.00000  0  -1398934.803   6425644.038  -2585829.158
10 0 59642  70200.00000  0  -1186226.489   6843517.802  -1303150.140
10 0 59642  70380.00000  0   -922778.263   7006357.502     27247.794
10 0 59642  70560.00000  0   -624951.714   6907085.305   1356647.922
10 0 59642  70740.00000  0   -310420.203   6548685.326   2636372.221
10 0 59642  70920.00000  0      2747.354   5944095.813   3819608.643
10 0 59642  71100.00000  0    297005.480   5115698.497   4863145.549
10 0 59642  71280.00000  0    556209.834   4094430.165   5728958.545
10 0 59642  71460.00000  0    766411.106   2918560.105   6385567.090
10 0 59642  71640.00000  0    916526.981   1632214.410   6809135.329
10 0 59642  71820.00000  0    998864.245    283698.634   6984290.556
10 0 59642  72000.00000  0   1009474.765  -1076312.388   6904643.357
10 0 59642  72180.00000  0    948332.382  -2396659.662   6573011.285
10 0 59642  72360.00000  0    819323.975  -3627610.544   6001336.677
10 0 59642  72540.00000  0    630053.782  -4722731.143   5210291.232
10 0 59642  72720.00000  0    391471.276  -5640652.006   4228578.693
10 0 59642  72900.00000  0    117334.291  -6346679.146   3091949.399
10 0 59642  73080.00000  0   -176478.140  -6814178.262   1841930.617
10 0 59642  73260.00000  0   -472771.641  -7025654.480    524313.258
10 0 59642  73440.00000  0   -753922.503  -6973474.829   -812553.083
10 0 59642  73620.00000  0  -1002797.080  -6660175.611  -2119590.625
10 0 59642  73800.00000  0  -1203651.731  -6098337.392  -3348851.947
10 0 59642  73980.00000  0  -1342969.057  -5310042.269  -4455326.241
10 0 59642  74160.00000  0  -1410185.364  -4325939.114  -5398611.853
10 0 59642  74340.00000  0  -1398272.451  -3183977.536  -6144381.002
10 0 59642  74520.00000  0  -1304148.240  -1927882.125  -6665593.056
10 0 59642  74700.00000  0  -1128901.080   -605436.302  -6943422.281
10 0 59642  74880.00000  0   -877822.800    733348.577  -6967883.088
10 0 59642  75060.00000  0   -560248.757   2038112.742  -6738150.705
10 0 59642  75240.00000  0   -189212.174   3260018.681  -6262579.793
10 0 59642  75420.00000  0    219077.390   4353564.605  -5558424.065
10 0 59642  75600.00000  0    645918.093   5278284.630  -4651251.523
10 0 59642  75780.00000  0   1070936.342   6000276.237  -3574064.930
10 0 59642  75960.00000  0   1473014.204   6493495.301  -2366139.572
10 0 59642  76140.00000  0   1831283.700   6740756.972  -1071609.320
10 0 59642  76320.00000  0   2126141.939   6734389.497    262156.578
10 0 59642  76500.00000  0   2340232.708   6476495.997   1586320.891
10 0 59642  76680.00000  0   2459342.085   5978810.548   2852407.540
10 0 59642  76860.00000  0   2473163.085   5262159.307   4014113.273
10 0 59642  77040.00000  0   2375890.376   4355555.397   5029026.933
10 0 59642  77220.00000  0   2166610.700   3294968.965   5860181.071
10 0 59642  77400.00000  0   1849476.308   2121849.064   6477364.949
10 0 59642  77580.00000  0   1433661.879    881476.263   6858178.499
10 0 59642  77760.00000  0    933103.276   -378795.239   6988797.676
10 0 59642  77940.00000  0    366031.697  -1611331.785   6864443.437
10 0 59642  78120.00000  0   -245684.971  -2770004.841   6489552.727
10 0 59642  78300.00000  0   -877375.175  -3811908.846   5877636.727
10 0 59642  78480.00000  0  -1502538.263  -4698950.550   5050830.011
10 0 59642  78660.00000  0  -2093935.780  -5399267.138   4039151.472
10 0 59642  78840.00000  0  -2624768.020  -5888429.780   2879467.728
10 0 59642  79020.00000  0  -3069878.315  -6150360.404   1614172.262
99
